[{"OBJECT_NAME":"GLOBALSTAR M086","OBJECT_ID":"2011-080F","EPOCH":"2026-03-09T22:45:15.558336","MEAN_MOTION":12.62283911,"ECCENTRICITY":0.00012005,"INCLINATION":51.9888,"RA_OF_ASC_NODE":270.5949,"ARG_OF_PERICENTER":151.4075,"MEAN_ANOMALY":356.929,"EPHEMERIS_TYPE":0,"CLASSIFICATION_TYPE":"U","NORAD_CAT_ID":38045,"ELEMENT_SET_NO":999,"REV_AT_EPOCH":65712,"BSTAR":0.00020861954,"MEAN_MOTION_DOT":-6.6e-7,"MEAN_MOTION_DDOT":0},{"OBJECT_NAME":"COSMOS 2144","OBJECT_ID":"1991-033B","EPOCH":"2026-03-09T22:19:42.168288","MEAN_MOTION":12.62390099,"ECCENTRICITY":0.00049073,"INCLINATION":82.5789,"RA_OF_ASC_NODE":32.723,"ARG_OF_PERICENTER":350.9908,"MEAN_ANOMALY":9.1095,"EPHEMERIS_TYPE":0,"CLASSIFICATION_TYPE":"U","NORAD_CAT_ID":21300,"ELEMENT_SET_NO":999,"REV_AT_EPOCH":60393,"BSTAR":0.0001152486,"MEAN_MOTION_DOT":3.1e-7,"MEAN_MOTION_DDOT":0}]
